"{\n    \"CCSDS_OMM_VERS\": \"2.0\",\n    \"COMMENT\": \"GENERATED VIA SPACE-TRACK.ORG API\",\n    \"CREATION_DATE\": \"2025-08-30T03:38:48\",\n    \"ORIGINATOR\": \"18 SPCS\",\n    \"OBJECT_NAME\": \"GALILEO 7 (263)\",\n    \"OBJECT_ID\": \"2015-017A\",\n    \"CENTER_NAME\": \"EARTH\",\n    \"REF_FRAME\": \"TEME\",\n    \"TIME_SYSTEM\": \"UTC\",\n    \"MEAN_ELEMENT_THEORY\": \"SGP4\",\n    \"EPOCH\": \"2025-08-29T02:15:28.438560\",\n    \"MEAN_MOTION\": \"1.7047645151\",\n    \"ECCENTRICITY\": \"0.00040703422\",\n    \"INCLINATION\": \"56.873115\",\n    \"RA_OF_ASC_NODE\": \"349.56109\",\n    \"ARG_OF_PERICENTER\": \"245.10229\",\n    \"MEAN_ANOMALY\": \"114.8776\",\n    \"EPHEMERIS_TYPE\": \"0\",\n    \"CLASSIFICATION_TYPE\": \"U\",\n    \"NORAD_CAT_ID\": \"40544\",\n    \"ELEMENT_SET_NO\": \"999\",\n    \"REV_AT_EPOCH\": \"6422\",\n    \"BSTAR\": \"0\",\n    \"MEAN_MOTION_DOT\": \"-0.000001013197\",\n    \"MEAN_MOTION_DDOT\": \"0\",\n    \"TLE_LINE0\": \"0 GALILEO 7 (263)\",\n    \"TLE_LINE1\": \"1 40544U 15017A   25241.09407915 -.00000101  00000-0  00000-0 0  9993\",\n    \"TLE_LINE2\": \"2 40544  56.8731 349.5611 0004070 245.1023 114.8776  1.70476452 64220\",\n    \"SEMIMAJOR_AXIS\": \"29600.036\",\n    \"PERIOD\": \"844.691\",\n    \"APOAPSIS\": \"23233.950\",\n    \"PERIAPSIS\": \"23209.853\",\n    \"OBJECT_TYPE\": \"PAYLOAD\",\n    \"DECAYED\": \"0\"\n}"